#dP2021  8 23  0  0  0.00000000      96 __u+U ITR00 FIT  IAC
## 2172  86400.00000000   900.00000000 59449 0.0000000000000
+  115   C06C07C08C09C10C11C12C13C14C16C19C20C21C22C23C24C25
+        C26C27C28C29C30C32C33C34C35C36C37C38C39C40C41C42C43
+        C44C45C46E01E02E03E04E05E07E08E09E11E12E13E14E15E18
+        E19E21E24E25E26E27E30E31E33E36G01G02G03G04G05G06G07
+        G08G09G10G12G13G14G15G16G17G18G19G20G21G22G23G24G25
+        G26G27G28G29G30G31G32J02J03R01R02R03R04R05R07R08R09
+        R11R12R13R14R15R16R17R18R19R20R21R22R24  0  0  0  0
++         7  9  8  8  9  8  8  8  8  7  8  8  7  7  7  7  7
++         9  9  6  6  7  8  9  7  7  7  7  8  7  0  8  8  6
++         8  8  8  6  6  8  8  9  8  9  8  8  8  6  6  8  7
++         8  7  7  7  8  8  7  6  7  9  7  8  6  8  6  7  7
++         7  7  7  7  7  7  6  7  6  7  7  7  6  8  6  7  7
++         7  8  7  6  6  7  7  0  0  9  7  7  7  8  9  6  7
++         7  9  7  8  7  7  8  7  9  8  8  9  7  0  0  0  0
%c M  cc GPS ccc cccc cccc cccc cccc ccccc ccccc ccccc ccccc
%c cc cc ccc ccc cccc cccc cccc cccc ccccc ccccc ccccc ccccc
%f  0.0000000  0.000000000  0.00000000000  0.000000000000000
%f  0.0000000  0.000000000  0.00000000000  0.000000000000000
%i    0    0    0    0      0      0      0      0         0
%i    0    0    0    0      0      0      0      0         0
/* INFORMATION & ANALYSIS CENTER (IAC)      ULTRA-RAPID DATA
/* S/V CLOCKS ARE ALIGNED TO GNSS TIME                      
/* G:C1WC2W R:C1PC2P E:C1XC5X C:C2IC6I J:C1CC2S             
/* PCV:IGS14_2163 OL/AL:FES2004  NONE     YN ORB:CoN CLK:CoN
*  2021 08 23  2  0  0.00000000
PC06 -13037.341140  23861.580513 -32266.304412 999999.999999
PC07      0.000000      0.000000      0.000000 999999.999999
PC08  -4620.738985  26754.573504  32490.099545 999999.999999
PC09  -1750.118591  24331.224569 -34103.283204 999999.999999
PC10  -7968.136424  40225.670449   8881.616252 999999.999999
PC11  23564.672985  -7645.100914 -12836.658694 999999.999999
PC12  27359.507172   3474.285483   4395.121239 999999.999999
PC13   7646.487713  35096.744479  22394.218461 999999.999999
PC14  18868.623741 -17555.958119 -10755.813663 999999.999999
PC16 -15613.958904  22987.235792 -31658.449983 999999.999999
PC19 -14976.144545  23479.112041   1642.336592 999999.999999
PC20 -19580.809094  10413.209174  16928.940104 999999.999999
PC21  12706.221694   9602.362989 -22902.499211 999999.999999
PC22  -1523.361402  23358.428030 -15174.410914 999999.999999
PC23  -7893.755159 -25607.365261   7806.710177 999999.999999
PC24  18209.088246   1557.515218  21096.674618 999999.999999
PC25   6344.878475 -17934.108225  20409.940484 999999.999999
PC26  18949.088868  17856.950502  10082.468874 999999.999999
PC27 -23091.039081  -9275.169703 -12662.299739 999999.999999
PC28  -5161.663938 -15663.783065 -22509.817032 999999.999999
PC29 -15245.256848  13457.247237  19099.512993 999999.999999
PC30 -27436.089153   3197.271914   4023.608968 999999.999999
PC32 -12751.593311  -9594.814255  22902.987211 999999.999999
PC33  14888.622401 -23553.340836  -1698.208771 999999.999999
PC34  27230.586767  -3686.741033  -4826.305533 999999.999999
PC35   5229.518832  15593.212690  22532.425899 999999.999999
PC36  -7030.940522  17486.300178 -20546.766386 999999.999999
PC37 -18239.317884 -18971.087911  -9232.647469 999999.999999
PC38  -3997.986225  29342.966796  30078.918830 999999.999999
PC39 -21602.913444  22606.215585 -28352.234679 999999.999999
PC40      0.000000      0.000000      0.000000 999999.999999
PC41   1686.913689 -23539.231927  14935.464913 999999.999999
PC42  19548.104265  -9666.931352 -17383.445051 999999.999999
PC43  15838.772495 -13290.710576 -18743.434958 999999.999999
PC44  23249.206449   8645.743699  12748.962608 999999.999999
PC45   8128.725695  25584.652656  -7644.018563 999999.999999
PC46 -17699.644032   -321.676755 -21550.518456 999999.999999
PE01  16488.032820   4138.772141  24240.740492 999999.999999
PE02 -16490.665647  -3962.578777 -24251.220247 999999.999999
PE03 -25433.585411   3457.441312  14728.037337 999999.999999
PE04  23946.237638 -17161.240831   2898.007850 999999.999999
PE05 -12009.944525 -12503.010973  23993.336490 999999.999999
PE07  -8245.211961  20984.022390 -19169.384530 999999.999999
PE08 -23697.043358  17424.227388  -3253.338328 999999.999999
PE09   8038.746457 -20907.686663  19361.779321 999999.999999
PE11  -2721.546115 -18444.775628 -23006.466136 999999.999999
PE12  17713.166285  -7291.123549 -22570.975910 999999.999999
PE13   2307.737621  18220.103710  23211.518837 999999.999999
PE14 -24119.062365   8115.200774    156.052482 999999.999999
PE15 -17652.071665   7286.535049  22613.521504 999999.999999
PE18  22036.960821 -18324.275558 -13224.544357 999999.999999
PE19  24514.241940  -1555.501760 -16512.708418 999999.999999
PE21  10887.528324  22972.598621  15167.922606 999999.999999
PE24   2056.812590 -29247.153140   3994.264282 999999.999999
PE25 -10762.338327 -23144.537351 -14976.024824 999999.999999
PE26  21386.686578  18263.808615   9247.242091 999999.999999
PE27  -1271.486376  29415.525489  -3058.147033 999999.999999
PE30 -13184.630523  17418.953048 -19976.662135 999999.999999
PE31  12609.016039 -18504.334519  19374.978502 999999.999999
PE33  27165.512596   7911.362177  -8700.439942 999999.999999
PE36 -20840.484792 -18403.514628 -10158.813505 999999.999999
PG01 -22261.314146 -13993.580174   4595.097023 999999.999999
PG02   8565.593888  19524.871670  16447.087157 999999.999999
PG03 -12712.412066 -10743.576201  20623.324796 999999.999999
PG04 -21925.911704  -3026.999385  14735.081834 999999.999999
PG05   7451.832810  21484.065506 -13748.875806 999999.999999
PG06  -3897.383454  15141.507355  21516.644965 999999.999999
PG07 -20835.559449  -1772.646900 -16291.101241 999999.999999
PG08 -13310.329081  -9958.742677 -20794.202001 999999.999999
PG09 -25197.966541   6872.550194   4834.686414 999999.999999
PG10  11624.601726 -19984.521606 -12701.289052 999999.999999
PG12  11652.232325  11955.256769  20440.677334 999999.999999
PG13   4683.958226  14389.551207 -21971.242217 999999.999999
PG14 -12573.661761  19896.118191 -12261.086554 999999.999999
PG15  14965.620075   9172.804799 -20397.301069 999999.999999
PG16  -1119.665947 -24468.193059  -9918.378295 999999.999999
PG17 -21220.501607  13422.215538   9097.009838 999999.999999
PG18  19245.962856   -504.532400 -18348.174245 999999.999999
PG19 -14716.131512  15117.812245  15762.704054 999999.999999
PG20   1697.383302  26566.513887  -2142.754464 999999.999999
PG21 -21066.663083 -16318.500796  -2566.208141 999999.999999
PG22 -11382.344680 -17757.487054  16438.228404 999999.999999
PG23  14964.175615  -9238.290874 -19907.127460 999999.999999
PG24  21945.160743  15348.672525   -575.201269 999999.999999
PG25  15222.559747   -148.581191  21484.219879 999999.999999
PG26   4498.592386 -25875.213927   2702.850628 999999.999999
PG27  -2364.208409 -15037.379182 -21912.116566 999999.999999
PG28  -9879.303419  23931.254697  -5814.317655 999999.999999
PG29  25454.446294  -3217.906634   6946.307198 999999.999999
PG30 -12800.075451   9615.449625 -21144.767967 999999.999999
PG31   2771.589533 -16475.597204  20447.166815 999999.999999
PG32  18199.125557 -15819.165369  11051.284017 999999.999999
PJ02 -20540.740306  27452.415964 -19962.341821 999999.999999
PJ03 -29694.701497  24096.877324  22732.700264 999999.999999
PR01 -18201.553026  16203.560886   7514.508970 999999.999999
PR02  -9616.504163  19945.470901 -12680.844404 999999.999999
PR03   4535.485287  11059.681355 -22500.781305 999999.999999
PR04  15758.182442  -4066.249998 -19614.718078 999999.999999
PR05  18331.657479 -16747.836940  -5781.428850 999999.999999
PR07  -5161.657801 -10476.005127  22706.944390 999999.999999
PR08 -15880.784195   4056.475830  19605.306553 999999.999999
PR09  -2832.680579 -23114.630891  10519.159443 999999.999999
PR11 -13205.197719  -8608.069609 -20043.827142 999999.999999
PR12  -7396.822210  10610.502390 -21955.072384 999999.999999
PR13   2457.029206  22730.052394 -11316.023953 999999.999999
PR14  11240.393778  21806.267389   6969.902436 999999.999999
PR15  13125.828971   8098.772779  20342.297208 999999.999999
PR16   6763.819533 -11809.291245  21532.420611 999999.999999
PR17  16603.919440  10767.633361  16126.402913 999999.999999
PR18  24911.141381   5355.075266    530.062673 999999.999999
PR19  20760.829012  -1894.474072 -14713.496590 999999.999999
PR20   2318.674797 -10077.471129 -23315.766643 999999.999999
PR21 -17549.682067 -10541.855169 -15198.393185 999999.999999
PR22 -25042.512830  -5065.852321    482.595908 999999.999999
PR24  -1463.373355  10746.540207  23098.730680 999999.999999
EOF
